NORAD_CAT_ID,OBJECT_NAME,OBJECT_TYPE,EPOCH,MEAN_MOTION,ECCENTRICITY,INCLINATION,RA_OF_ASC_NODE,ARG_OF_PERICENTER,MEAN_ANOMALY,BSTAR,MEAN_MOTION_DOT,MEAN_MOTION_DDOT,TLE_LINE0,TLE_LINE1,TLE_LINE2,SEMIMAJOR_AXIS,PERIOD,APOGEE,PERIGEE,DECAYED
51465.0,STARLINK-3401,PAYLOAD,2022-04-18 14:00:01,15.08806022,0.000216,53.216,178.6999,48.2024,0.496,0.0022692,0.00035978,0.0,0 STARLINK-3401,1 51465U 22010K   22108.58334491  .00035978  00000-0  22692-2 0  9991,2 51465  53.2160 178.6999 0002160  48.2024   0.4960 15.08806022 12787,6917.984,95.44,541.344,538.355,0.0
51465.0,STARLINK-3401,PAYLOAD,2022-04-18 22:00:00,15.08838042,0.0002032,53.2155,177.2019,50.1776,10.0952,-0.00055199,-9.062e-05,0.0,0 STARLINK-3401,1 51465U 22010K   22108.91667824 -.00009062  00000-0 -55199-3 0  9993,2 51465  53.2155 177.2019 0002032  50.1776  10.0952 15.08838042  3621,6917.886,95.438,541.1569999999998,538.346,0.0
51465.0,STARLINK-3401,PAYLOAD,2022-04-19 06:00:00,15.0885238,0.0001999,53.2155,175.7055,52.11600000000001,19.7433,-0.0024762,-0.00039495,0.0,0 STARLINK-3401,1 51465U 22010K   22109.25001157 -.00039495  00000-0 -24762-2 0  9996,2 51465  53.2155 175.7055 0001999  52.1160  19.7433 15.08852380 12883,6917.843000000003,95.437,541.09,538.325,0.0
51465.0,STARLINK-3401,PAYLOAD,2022-04-19 14:00:01,15.08802455,0.000213,53.2155,174.2107,45.9354,37.5201,0.0028422,0.0004519,0.0,0 STARLINK-3401,1 51465U 22010K   22109.58334491  .00045190  00000-0  28422-2 0  9996,2 51465  53.2155 174.2107 0002130  45.9354  37.5201 15.08802455  3629,6917.995,95.44,541.3340000000002,538.387,0.0
51465.0,STARLINK-3401,PAYLOAD,2022-04-19 22:00:00,15.0883151,0.0001996,53.2153,172.7127,48.2662,46.7622,0.0001023,1.34e-05,0.0,0 STARLINK-3401,1 51465U 22010K   22109.91667824  .00001340  00000-0  10230-3 0  9990,2 51465  53.2153 172.7127 0001996  48.2662  46.7622 15.08831510 12981,6917.906,95.438,541.1519999999998,538.391,0.0
51465.0,STARLINK-3401,PAYLOAD,2022-04-20 14:00:01,15.0879638,0.0002131,53.2154,169.7214,43.3069,74.9037,0.0032649,0.00051995,0.0,0 STARLINK-3401,1 51465U 22010K   22110.58334491  .00051995  00000-0  32649-2 0  9994,2 51465  53.2154 169.7214 0002131  43.3069  74.9037 15.08796380  3612,6918.014,95.44,541.3530000000002,538.404,0.0
51465.0,STARLINK-3401,PAYLOAD,2022-04-20 22:00:00,15.08824638,0.000199,53.2156,168.2233,46.2651,83.5152,0.00061758,9.55e-05,0.0,0 STARLINK-3401,1 51465U 22010K   22110.91667824  .00009550  00000-0  61758-3 0  9994,2 51465  53.2156 168.2233 0001990  46.2651  83.5152 15.08824638  3601,6917.927,95.439,541.169,538.4159999999998,0.0
51465.0,STARLINK-3401,PAYLOAD,2022-04-21 06:00:00,15.08778698,0.0002048,53.2169,166.7339,47.1663,94.2057,0.0052121,0.00083507,0.0,0 STARLINK-3401,1 51465U 22010K   22111.25001157  .00083507  00000-0  52121-2 0  9990,2 51465  53.2169 166.7339 0002048  47.1663  94.2057 15.08778698 13184,6918.068,95.441,541.35,538.516,0.0
51465.0,STARLINK-3401,PAYLOAD,2022-04-21 14:00:01,15.08828325,0.0002193,53.2159,165.2321,42.5124,110.4458,0.0011379,0.00017862,0.0,0 STARLINK-3401,1 51465U 22010K   22111.58334491  .00017862  00000-0  11379-2 0  9997,2 51465  53.2159 165.2321 0002193  42.5124 110.4458 15.08828325  3627,6917.916,95.438,541.298,538.264,0.0
51465.0,STARLINK-3401,PAYLOAD,2022-04-21 22:00:00,15.08826822,0.0001972,53.2161,163.734,44.203,120.3651,0.0007541,0.0001173,0.0,0 STARLINK-3401,1 51465U 22010K   22111.91667824  .00011730  00000-0  75410-3 0  9998,2 51465  53.2161 163.7340 0001972  44.2030 120.3651 15.08826822  3606,6917.920999999999,95.438,541.15,538.4209999999998,0.0
51465.0,STARLINK-3401,PAYLOAD,2022-04-22 06:00:00,15.08854384,0.0002031,53.2164,162.2379,46.6594,129.4883,-0.0007099999999999,-0.00011575,0.0,0 STARLINK-3401,1 51465U 22010K   22112.25001157 -.00011575  00000-0 -71000-3 0  9997,2 51465  53.2164 162.2379 0002031  46.6594 129.4883 15.08854384 13335,6917.8359999999975,95.437,541.106,538.2959999999998,0.0
51465.0,STARLINK-3401,PAYLOAD,2022-04-22 14:00:01,15.0883025,0.0002158,53.2164,160.7429,40.7186,147.0302,0.0013114,0.00020639,0.0,0 STARLINK-3401,1 51465U 22010K   22112.58334491  .00020639  00000-0  13114-2 0  9993,2 51465  53.2164 160.7429 0002158  40.7186 147.0302 15.08830250  3625,6917.91,95.438,541.268,538.2819999999998,0.0
51465.0,STARLINK-3401,PAYLOAD,2022-04-23 06:00:02,15.08847731,0.0001967,53.2169,157.749,44.3077,166.6788,-0.0010921,-0.00017631,0.0,0 STARLINK-3401,1 51465U 22010K   22113.25002315 -.00017631  00000-0 -10921-2 0  9998,2 51465  53.2169 157.7490 0001967  44.3077 166.6788 15.08847731 13493,6917.857,95.437,541.0830000000002,538.361,0.0
51465.0,STARLINK-3401,PAYLOAD,2022-04-23 14:00:01,15.08821355,0.0002107,53.2166,156.2538,39.3362,183.1871,0.0028535,0.00045396,0.0,0 STARLINK-3401,1 51465U 22010K   22113.58334491  .00045396  00000-0  28535-2 0  9994,2 51465  53.2166 156.2538 0002107  39.3362 183.1871 15.08821355  3585,6917.937,95.439,541.26,538.345,0.0
51465.0,STARLINK-3401,PAYLOAD,2022-04-24 06:00:00,15.08846091,0.0001902,53.2169,153.2603,42.5517,203.151,-0.0011087,-0.00017893,0.0,0 STARLINK-3401,1 51465U 22010K   22114.25001157 -.00017893  00000-0 -11087-2 0  9996,2 51465  53.2169 153.2603 0001902  42.5517 203.1510 15.08846091 13643,6917.861999999999,95.437,541.043,538.411,0.0
51465.0,STARLINK-3401,PAYLOAD,2022-04-24 14:00:01,15.08817486,0.0002039,53.2165,151.765,38.1994,219.0949,0.0026622,0.0004231,0.0,0 STARLINK-3401,1 51465U 22010K   22114.58334491  .00042310  00000-0  26622-2 0  9993,2 51465  53.2165 151.7650 0002039  38.1994 219.0949 15.08817486  3609,6917.949000000001,95.439,541.225,538.404,0.0
51465.0,STARLINK-3401,PAYLOAD,2022-04-25 06:00:00,15.08836077,0.0001853,53.2166,148.7715,40.9479,239.5239,-0.0013460999999999,-0.00021645,0.0,0 STARLINK-3401,1 51465U 22010K   22115.25001157 -.00021645  00000-0 -13461-2 0  9995,2 51465  53.2166 148.7715 0001853  40.9479 239.5239 15.08836077 13797,6917.892,95.438,541.039,538.475,0.0
51465.0,STARLINK-3401,PAYLOAD,2022-04-25 14:00:01,15.08810209,0.0001991,53.216,147.2761,36.8793,255.1673,0.0018994,0.00030046,0.0,0 STARLINK-3401,1 51465U 22010K   22115.58334491  .00030046  00000-0  18994-2 0  9990,2 51465  53.2160 147.2761 0001991  36.8793 255.1673 15.08810209  3628,6917.971,95.439,541.214,538.4590000000002,0.0
51465.0,STARLINK-3401,PAYLOAD,2022-04-25 22:00:00,15.08807113,0.0001817,53.216,145.778,42.3039,261.328,0.0028209,0.00044852,0.0,0 STARLINK-3401,1 51465U 22010K   22115.91667824  .00044852  00000-0  28209-2 0  9996,2 51465  53.2160 145.7780 0001817  42.3039 261.3280 15.08807113  3616,6917.981,95.44,541.1030000000002,538.589,0.0
51465.0,STARLINK-3401,PAYLOAD,2022-04-26 06:00:00,15.08852478,0.0001928,53.216,144.2827,42.1651,273.0431,-0.0013338,-0.0002146,0.0,0 STARLINK-3401,1 51465U 22010K   22116.25001157 -.00021460  00000-0 -13338-2 0  9994,2 51465  53.2160 144.2827 0001928  42.1651 273.0431 15.08852478 13942,6917.842,95.437,541.0409999999998,538.373,0.0
51465.0,STARLINK-3401,PAYLOAD,2022-04-26 14:00:01,15.08831693,0.0002049,53.2156,142.787,37.971,288.8922,0.0013869,0.00021849,0.0,0 STARLINK-3401,1 51465U 22010K   22116.58335648  .00021849  00000-0  13869-2 0  9993,2 51465  53.2156 142.7870 0002049  37.9710 288.8922 15.08831693  3608,6917.906,95.438,541.188,538.3530000000002,0.0
51465.0,STARLINK-3401,PAYLOAD,2022-04-26 22:00:00,15.08825314,0.0001895,53.2157,141.2894,44.0603,294.3421,0.0020417,0.00032342,0.0,0 STARLINK-3401,1 51465U 22010K   22116.91667824  .00032342  00000-0  20417-2 0  9991,2 51465  53.2157 141.2894 0001895  44.0603 294.3421 15.08825314  3583,6917.925,95.438,541.101,538.479,0.0
51465.0,STARLINK-3401,PAYLOAD,2022-04-27 06:00:00,15.08849672,0.00021,53.2157,139.7935,44.7095,305.2908,-0.0026601,-0.00042387,0.0,0 STARLINK-3401,1 51465U 22010K   22117.25001157 -.00042387  00000-0 -26601-2 0  9993,2 51465  53.2157 139.7935 0002100  44.7095 305.2908 15.08849672 14096,6917.851,95.437,541.169,538.263,0.0
51465.0,STARLINK-3401,PAYLOAD,2022-04-27 14:00:01,15.08826343,0.0002217,53.2153,138.2975,41.3599,320.2897,0.0010177,0.0001594,0.0,0 STARLINK-3401,1 51465U 22010K   22117.58335648  .00015940  00000-0  10177-2 0  9998,2 51465  53.2153 138.2975 0002217  41.3599 320.2897 15.08826343  3576,6917.922,95.438,541.321,538.253,0.0
51465.0,STARLINK-3401,PAYLOAD,2022-04-27 22:00:00,15.08810712,0.0002066,53.2154,136.7994,46.8047,326.3765,0.0033003,0.00052587,0.0,0 STARLINK-3401,1 51465U 22010K   22117.91667824  .00052587  00000-0  33003-2 0  9990,2 51465  53.2154 136.7994 0002066  46.8047 326.3765 15.08810712 14195,6917.97,95.439,541.264,538.406,0.0
51465.0,STARLINK-3401,PAYLOAD,2022-04-28 14:00:01,15.08855888,0.0002294,53.2154,133.8081,42.0209,354.3467,-0.00017697,-3.105e-05,0.0,0 STARLINK-3401,1 51465U 22010K   22118.58334491 -.00003105  00000-0 -17697-3 0  9991,2 51465  53.2154 133.8081 0002294  42.0209 354.3467 15.08855888 14295,6917.831999999999,95.437,541.284,538.11,0.0
51465.0,STARLINK-3401,PAYLOAD,2022-04-29 14:00:01,15.08862008,0.000228,53.2156,129.3184,41.0664,30.1116,-0.0025679,-0.00040951,0.0,0 STARLINK-3401,1 51465U 22010K   22119.58334491 -.00040951  00000-0 -25679-2 0  9990,2 51465  53.2156 129.3184 0002280  41.0664  30.1116 15.08862008  3605,6917.813,95.436,541.255,538.101,0.0
51465.0,STARLINK-3401,PAYLOAD,2022-04-29 22:00:00,15.08803476,0.000205,53.2159,127.8202,45.1928,37.6009,0.0031718,0.00050503,0.0,0 STARLINK-3401,1 51465U 22010K   22119.91667824  .00050503  00000-0  31718-2 0  9999,2 51465  53.2159 127.8202 0002050  45.1928  37.6009 15.08803476 14491,6917.9919999999975,95.44,541.275,538.439,0.0
51465.0,STARLINK-3401,PAYLOAD,2022-04-30 14:00:01,15.08842495,0.0002265,53.2158,124.8289,41.5124,64.4356,-0.00038249,-6.371e-05,0.0,0 STARLINK-3401,1 51465U 22010K   22120.58334491 -.00006371  00000-0 -38249-3 0  9998,2 51465  53.2158 124.8289 0002265  41.5124  64.4356 15.08842495  3572,6917.873000000001,95.437,541.305,538.1709999999998,0.0
